{"type": "FeatureCollection", "features": [ {"type": "Feature", "properties": {"norad_id": 36402, "name": "COSMOS 2460 (732)", "group": "gnss", "lat": 50.01665371132074, "lon": -6.207047871286112, "alt_km": 19129.456796972274, "timestamp": "2025-12-08T05:48:09.277510+00:00", "meta": {"OBJECT_NAME": "COSMOS 2460 (732)", "OBJECT_ID": "2010-007C", "EPOCH": "2025-12-07T11:08:59.841600", "MEAN_MOTION": 2.13106055, "ECCENTRICITY": 0.00027105, "INCLINATION": 65.5326, "RA_OF_ASC_NODE": 320.9516, "ARG_OF_PERICENTER": 273.9316, "MEAN_ANOMALY": 267.1288, "EPHEMERIS_TYPE": 0, "CLASSIFICATION_TYPE": "U", "NORAD_CAT_ID": 36402, "ELEMENT_SET_NO": 999, "REV_AT_EPOCH": 12264, "BSTAR": 0, "MEAN_MOTION_DOT": -4.9e-07, "MEAN_MOTION_DDOT": 0}, "tle": {"line1": "1 36402U 10007C   25341.46458150 -.00000049  00000+0  00000+0 0  9993", "line2": "2 36402  65.5326 320.9516 0002710 273.9316 267.1288  2.13106055122643"}}, "geometry": {"type": "Point", "coordinates": [-6.207047871286112, 50.01665371132074]}}, {"type": "Feature", "properties": {"norad_id": 36585, "name": "GPS BIIF-1  (PRN 25)", "group": "gnss", "lat": 1.9660514619305325, "lon": 34.852618954066045, "alt_km": 20307.922205275398, "timestamp": "2025-12-08T05:48:09.277522+00:00", "meta": {"OBJECT_NAME": "GPS BIIF-1  (PRN 25)", "OBJECT_ID": "2010-022A", "EPOCH": "2025-12-07T05:49:32.737728", "MEAN_MOTION": 2.00552848, "ECCENTRICITY": 0.01258847, "INCLINATION": 54.3011, "RA_OF_ASC_NODE": 216.2957, "ARG_OF_PERICENTER": 65.0144, "MEAN_ANOMALY": 109.9417, "EPHEMERIS_TYPE": 0, "CLASSIFICATION_TYPE": "U", "NORAD_CAT_ID": 36585, "ELEMENT_SET_NO": 999, "REV_AT_EPOCH": 11374, "BSTAR": 0, "MEAN_MOTION_DOT": 3.7e-07, "MEAN_MOTION_DDOT": 0}, "tle": {"line1": "1 36585U 10022A   25341.24274002  .00000037  00000+0  00000+0 0  9996", "line2": "2 36585  54.3011 216.2957 0125884  65.0144 109.9417  2.00552848113744"}}, "geometry": {"type": "Point", "coordinates": [34.852618954066045, 1.9660514619305325]}}, {"type": "Feature", "properties": {"norad_id": 36828, "name": "BEIDOU-2 IGSO-1 (C06)", "group": "gnss", "lat": 50.92565091445243, "lon": -77.85877096036651, "alt_km": 35848.49779396852, "timestamp": "2025-12-08T05:48:09.277534+00:00", "meta": {"OBJECT_NAME": "BEIDOU-2 IGSO-1 (C06)", "OBJECT_ID": "2010-036A", "EPOCH": "2025-12-07T22:42:27.537984", "MEAN_MOTION": 1.00277452, "ECCENTRICITY": 0.00512392, "INCLINATION": 54.2867, "RA_OF_ASC_NODE": 164.691, "ARG_OF_PERICENTER": 215.8688, "MEAN_ANOMALY": 144.8467, "EPHEMERIS_TYPE": 0, "CLASSIFICATION_TYPE": "U", "NORAD_CAT_ID": 36828, "ELEMENT_SET_NO": 999, "REV_AT_EPOCH": 5618, "BSTAR": 0, "MEAN_MOTION_DOT": -6.8e-07, "MEAN_MOTION_DDOT": 0}, "tle": {"line1": "1 36828U 10036A   25341.94615206 -.00000068  00000+0  00000+0 0  9998", "line2": "2 36828  54.2867 164.6910 0051239 215.8688 144.8467  1.00277452 56188"}}, "geometry": {"type": "Point", "coordinates": [-77.85877096036651, 50.92565091445243]}}, {"type": "Feature", "properties": {"norad_id": 37210, "name": "BEIDOU-2 G4 (C04)", "group": "gnss", "lat": -3.067077532740428, "lon": -35.544765224372334, "alt_km": 35766.54112431388, "timestamp": "2025-12-08T05:48:09.277546+00:00", "meta": {"OBJECT_NAME": "BEIDOU-2 G4 (C04)", "OBJECT_ID": "2010-057A", "EPOCH": "2025-12-07T21:14:37.294368", "MEAN_MOTION": 1.00271448, "ECCENTRICITY": 0.001092, "INCLINATION": 3.1724, "RA_OF_ASC_NODE": 69.95, "ARG_OF_PERICENTER": 190.1489, "MEAN_ANOMALY": 295.5319, "EPHEMERIS_TYPE": 0, "CLASSIFICATION_TYPE": "U", "NORAD_CAT_ID": 37210, "ELEMENT_SET_NO": 999, "REV_AT_EPOCH": 5537, "BSTAR": 0, "MEAN_MOTION_DOT": -1.09e-06, "MEAN_MOTION_DDOT": 0}, "tle": {"line1": "1 37210U 10057A   25341.88515387 -.00000109  00000+0  00000+0 0  9995", "line2": "2 37210   3.1724  69.9500 0010920 190.1489 295.5319  1.00271448 55376"}}, "geometry": {"type": "Point", "coordinates": [-35.544765224372334, -3.067077532740428]}}, {"type": "Feature", "properties": {"norad_id": 37256, "name": "BEIDOU-2 IGSO-2 (C07)", "group": "gnss", "lat": -1.606518076835405, "lon": -87.26974619911057, "alt_km": 35945.092868581254, "timestamp": "2025-12-08T05:48:09.277559+00:00", "meta": {"OBJECT_NAME": "BEIDOU-2 IGSO-2 (C07)", "OBJECT_ID": "2010-068A", "EPOCH": "2025-12-03T17:22:36.030432", "MEAN_MOTION": 1.0028871, "ECCENTRICITY": 0.00492335, "INCLINATION": 47.9043, "RA_OF_ASC_NODE": 274.2613, "ARG_OF_PERICENTER": 216.1442, "MEAN_ANOMALY": 310.2369, "EPHEMERIS_TYPE": 0, "CLASSIFICATION_TYPE": "U", "NORAD_CAT_ID": 37256, "ELEMENT_SET_NO": 999, "REV_AT_EPOCH": 5483, "BSTAR": 0, "MEAN_MOTION_DOT": -2.25e-06, "MEAN_MOTION_DDOT": 0}, "tle": {"line1": "1 37256U 10068A   25337.72402813 -.00000225  00000+0  00000+0 0  9993", "line2": "2 37256  47.9043 274.2613 0049233 216.1442 310.2369  1.00288710 54839"}}, "geometry": {"type": "Point", "coordinates": [-87.26974619911057, -1.606518076835405]}}, {"type": "Feature", "properties": {"norad_id": 37384, "name": "BEIDOU-2 IGSO-3 (C08)", "group": "gnss", "lat": -42.78514018833368, "lon": -108.73808688384483, "alt_km": 35682.4182139395, "timestamp": "2025-12-08T05:48:09.277572+00:00", "meta": {"OBJECT_NAME": "BEIDOU-2 IGSO-3 (C08)", "OBJECT_ID": "2011-013A", "EPOCH": "2025-12-07T14:00:04.361184", "MEAN_MOTION": 1.00271436, "ECCENTRICITY": 0.0035334, "INCLINATION": 62.1366, "RA_OF_ASC_NODE": 41.9657, "ARG_OF_PERICENTER": 187.0582, "MEAN_ANOMALY": 165.2458, "EPHEMERIS_TYPE": 0, "CLASSIFICATION_TYPE": "U", "NORAD_CAT_ID": 37384, "ELEMENT_SET_NO": 999, "REV_AT_EPOCH": 5373, "BSTAR": 0, "MEAN_MOTION_DOT": -1.91e-06, "MEAN_MOTION_DDOT": 0}, "tle": {"line1": "1 37384U 11013A   25341.58338381 -.00000191  00000+0  00000+0 0  9995", "line2": "2 37384  62.1366  41.9657 0035334 187.0582 165.2458  1.00271436 53735"}}, "geometry": {"type": "Point", "coordinates": [-108.73808688384483, -42.78514018833368]}}, {"type": "Feature", "properties": {"norad_id": 37605, "name": "GSAT-8 (GAGAN/PRN 127)", "group": "gnss", "lat": 1.1371308866297314, "lon": -140.67522459464132, "alt_km": 35759.157769682395, "timestamp": "2025-12-08T05:48:09.277584+00:00", "meta": {"OBJECT_NAME": "GSAT-8 (GAGAN/PRN 127)", "OBJECT_ID": "2011-022A", "EPOCH": "2025-12-07T13:53:50.961120", "MEAN_MOTION": 1.00271935, "ECCENTRICITY": 0.00090552, "INCLINATION": 1.636, "RA_OF_ASC_NODE": 84.2444, "ARG_OF_PERICENTER": 181.0948, "MEAN_ANOMALY": 74.8213, "EPHEMERIS_TYPE": 0, "CLASSIFICATION_TYPE": "U", "NORAD_CAT_ID": 37605, "ELEMENT_SET_NO": 999, "REV_AT_EPOCH": 5129, "BSTAR": 0, "MEAN_MOTION_DOT": 8.8e-07, "MEAN_MOTION_DDOT": 0}, "tle": {"line1": "1 37605U 11022A   25341.57906205  .00000088  00000+0  00000+0 0  9990", "line2": "2 37605   1.6360  84.2444 0009055 181.0948  74.8213  1.00271935 51295"}}, "geometry": {"type": "Point", "coordinates": [-140.67522459464132, 1.1371308866297314]}}, {"type": "Feature", "properties": {"norad_id": 37763, "name": "BEIDOU-2 IGSO-4 (C09)", "group": "gnss", "lat": 54.522942530724904, "lon": -102.52256647034612, "alt_km": 36256.424999910065, "timestamp": "2025-12-08T05:48:09.277597+00:00", "meta": {"OBJECT_NAME": "BEIDOU-2 IGSO-4 (C09)", "OBJECT_ID": "2011-038A", "EPOCH": "2025-12-01T12:32:09.960864", "MEAN_MOTION": 1.00284074, "ECCENTRICITY": 0.01487808, "INCLINATION": 54.5808, "RA_OF_ASC_NODE": 167.4476, "ARG_OF_PERICENTER": 230.2031, "MEAN_ANOMALY": 315.0387, "EPHEMERIS_TYPE": 0, "CLASSIFICATION_TYPE": "U", "NORAD_CAT_ID": 37763, "ELEMENT_SET_NO": 999, "REV_AT_EPOCH": 5266, "BSTAR": 0, "MEAN_MOTION_DOT": 1.01e-06, "MEAN_MOTION_DDOT": 0}, "tle": {"line1": "1 37763U 11038A   25335.52233751  .00000101  00000+0  00000+0 0  9995", "line2": "2 37763  54.5808 167.4476 0148780 230.2031 315.0387  1.00284074 52664"}}, "geometry": {"type": "Point", "coordinates": [-102.52256647034612, 54.522942530724904]}}, {"type": "Feature", "properties": {"norad_id": 37846, "name": "GSAT0101 (GALILEO-PFM)", "group": "gnss", "lat": 17.174921179720815, "lon": -1.49572710894785, "alt_km": 23217.004404055082, "timestamp": "2025-12-08T05:48:09.277611+00:00", "meta": {"OBJECT_NAME": "GSAT0101 (GALILEO-PFM)", "OBJECT_ID": "2011-060A", "EPOCH": "2025-12-06T10:45:46.943136", "MEAN_MOTION": 1.70475516, "ECCENTRICITY": 0.00028809, "INCLINATION": 57.0541, "RA_OF_ASC_NODE": 346.9907, "ARG_OF_PERICENTER": 311.6243, "MEAN_ANOMALY": 48.3737, "EPHEMERIS_TYPE": 0, "CLASSIFICATION_TYPE": "U", "NORAD_CAT_ID": 37846, "ELEMENT_SET_NO": 999, "REV_AT_EPOCH": 8783, "BSTAR": 0, "MEAN_MOTION_DOT": -8.1e-07, "MEAN_MOTION_DDOT": 0}, "tle": {"line1": "1 37846U 11060A   25340.44845999 -.00000081  00000+0  00000+0 0  9990", "line2": "2 37846  57.0541 346.9907 0002880 311.6243  48.3737  1.70475516 87832"}}, "geometry": {"type": "Point", "coordinates": [-1.49572710894785, 17.174921179720815]}}, {"type": "Feature", "properties": {"norad_id": 37847, "name": "GSAT0102 (GALILEO-FM2)", "group": "gnss", "lat": 50.09026036819719, "lon": 37.78273748449047, "alt_km": 23223.067741550127, "timestamp": "2025-12-08T05:48:09.277622+00:00", "meta": {"OBJECT_NAME": "GSAT0102 (GALILEO-FM2)", "OBJECT_ID": "2011-060B", "EPOCH": "2025-12-06T01:52:21.849024", "MEAN_MOTION": 1.7047572, "ECCENTRICITY": 0.00048425, "INCLINATION": 57.055, "RA_OF_ASC_NODE": 347.0012, "ARG_OF_PERICENTER": 307.2223, "MEAN_ANOMALY": 230.8964, "EPHEMERIS_TYPE": 0, "CLASSIFICATION_TYPE": "U", "NORAD_CAT_ID": 37847, "ELEMENT_SET_NO": 999, "REV_AT_EPOCH": 8783, "BSTAR": 0, "MEAN_MOTION_DOT": -7.9e-07, "MEAN_MOTION_DDOT": 0}, "tle": {"line1": "1 37847U 11060B   25340.07803066 -.00000079  00000+0  00000+0 0  9996", "line2": "2 37847  57.0550 347.0012 0004842 307.2223 230.8964  1.70475720 87838"}}, "geometry": {"type": "Point", "coordinates": [37.78273748449047, 50.09026036819719]}}]}